OBJECT_NAME,OBJECT_ID,EPOCH,MEAN_MOTION,ECCENTRICITY,INCLINATION,RA_OF_ASC_NODE,ARG_OF_PERICENTER,MEAN_ANOMALY,EPHEMERIS_TYPE,CLASSIFICATION_TYPE,NORAD_CAT_ID,ELEMENT_SET_NO,REV_AT_EPOCH,BSTAR,MEAN_MOTION_DOT,MEAN_MOTION_DDOT
STARLINK-2082,2021-005U,2026-07-14T11:25:56.888832,15.31698723,.00014342,53.1578,192.7489,100.7951,259.3212,0,U,47367,999,30245,.25182515E-4,.416E-5,0
STARLINK-2084,2021-005V,2026-07-14T09:18:53.029728,15.31696068,.00011352,53.1584,193.0000,88.0933,272.0198,0,U,47368,999,30244,-.15709056E-4,-.852E-5,0
STARLINK-2088,2021-005Y,2026-07-14T09:26:19.963104,15.31699687,.00014179,53.1576,196.8177,78.9655,281.1506,0,U,47371,999,30238,.33166379E-4,.664E-5,0
STARLINK-2092,2021-005AA,2026-07-14T11:05:43.910592,15.31739306,.00011431,53.1575,192.6385,90.5845,269.5288,0,U,47373,999,30245,.23619985E-3,.698E-4,0
STARLINK-2094,2021-005AC,2026-07-14T05:30:12.498048,15.31699825,.00012671,53.1565,193.7535,74.7789,285.3352,0,U,47375,999,30241,.29516968E-4,.551E-5,0
STARLINK-2096,2021-005AD,2026-07-14T07:10:52.987296,15.31698840,.00011615,53.1573,193.4388,49.4215,310.6887,0,U,47376,999,30242,.11364694E-4,-.12E-6,0
STARLINK-2097,2021-005AE,2026-07-14T06:25:35.861952,15.31698799,.00013638,53.1583,197.3355,89.4058,270.7099,0,U,47377,999,30236,-.13092908E-4,-.771E-5,0
STARLINK-2098,2021-005AF,2026-07-14T13:16:51.003840,15.31701758,.0001259,53.1596,143.8948,91.6627,268.4519,0,U,47378,999,30315,-.41412E-5,-.494E-5,0
STARLINK-2099,2021-005AG,2026-07-14T13:30:09.058176,15.31701512,.0001352,53.1609,143.2200,94.5854,265.5302,0,U,47379,999,30316,.29125E-4,.539E-5,0
STARLINK-2100,2021-005AH,2026-07-14T22:00:03.000096,15.92174414,.00059108,53.0478,129.7390,81.3576,265.5653,0,U,47380,999,569,.69659099E-3,.23596E-2,.31991396E-4
STARLINK-2101,2021-005AJ,2026-07-14T07:22:47.088480,15.31695488,.00010958,53.1602,168.2854,97.9248,262.1878,0,U,47381,999,30278,.7625392E-5,-.128E-5,0
STARLINK-2102,2021-005AK,2026-07-14T07:05:19.625856,15.31707284,.00021657,53.1585,157.4642,86.9637,273.1612,0,U,47382,999,30293,-.88681912E-4,-.3117E-4,0
STARLINK-2103,2021-005AL,2026-07-14T13:10:18.949152,15.37348236,.0005631,53.1569,142.6427,60.7613,299.3953,0,U,47383,999,30317,.90261E-3,.33294E-3,0
STARLINK-2104,2021-005AM,2026-07-14T08:36:35.688096,15.31706188,.00013132,53.1590,168.0566,95.5737,264.5414,0,U,47384,999,30278,-.13891925E-3,-.4674E-4,0
STARLINK-2105,2021-005AN,2026-07-14T05:14:14.637408,15.31701932,.00016083,53.1595,168.3778,70.7702,289.3473,0,U,47385,999,30276,-.2603196E-5,-.446E-5,0
STARLINK-2106,2021-005AP,2026-07-14T17:40:14.772576,15.31675436,.00014791,53.1609,166.3191,85.3725,274.7445,0,U,47386,999,30284,.22421144E-3,.6593E-4,0
STARLINK-2109,2021-005AR,2026-07-14T11:53:58.367616,15.31700990,.0001195,53.1596,196.2731,79.0156,281.0980,0,U,47388,999,30239,.10314E-4,-.45E-6,0
STARLINK-2110,2021-005AS,2026-07-14T03:53:58.113888,15.33448903,.0001699,53.1557,168.1253,67.2828,292.8353,0,U,47389,999,30277,.78085522E-3,.25314E-3,0
STARLINK-2111,2021-005AT,2026-07-14T11:20:25.809216,15.31703948,.00013405,53.1587,196.4357,94.1675,265.9479,0,U,47390,999,30239,.3954605E-4,.862E-5,0
STARLINK-2112,2021-005AU,2026-07-14T07:46:34.051008,15.13060745,.00027005,53.0647,179.9016,26.5975,333.5155,0,U,47391,999,30259,.59458339E-3,.10352E-3,0
STARLINK-2113,2021-005AV,2026-07-14T22:48:42.262560,16.02480181,.0004323,53.0367,102.0501,213.8415,146.2340,0,U,47392,999,30373,.62770451E-3,.378256E-2,.74150274E-4
STARLINK-2119,2021-005BA,2026-07-14T22:52:15.940992,15.36716284,.00060844,53.1556,189.4656,42.2418,317.9053,0,U,47397,999,30254,.63666332E-3,.22861E-3,0
STARLINK-2121,2021-005BC,2026-07-14T07:28:23.834208,15.31696234,.00011278,53.1592,167.5458,78.0872,282.0255,0,U,47399,999,30279,.28058102E-4,.506E-5,0
STARLINK-2122,2021-005BD,2026-07-14T05:47:03.585408,15.31697560,.00014776,53.1590,144.7086,74.0565,286.0599,0,U,47400,999,30311,.46013334E-4,.1063E-4,0
STARLINK-2123,2021-005BE,2026-07-14T05:27:38.388096,15.31696550,.00014095,53.1586,168.1991,84.5381,275.5781,0,U,47401,999,30277,-.9794795E-5,-.669E-5,0
STARLINK-2128,2021-005BH,2026-07-14T22:35:20.504256,16.11983990,.00058538,53.0303,99.4251,233.8968,126.1525,0,U,47404,999,30377,.7720603E-3,.849584E-2,.4302495E-3
STARLINK-2130,2021-005BJ,2026-07-14T10:25:29.829792,15.31698112,.00011837,53.1574,192.7037,86.7466,273.3671,0,U,47405,999,30244,-.13994339E-4,-.799E-5,0
STARLINK-2134,2021-005BL,2026-07-14T21:48:21.511584,15.31698696,.00012737,53.1593,166.8671,89.1333,270.9814,0,U,47407,999,30284,.18643627E-4,.213E-5,0
STARLINK-2135,2021-005BM,2026-07-14T07:48:37.156320,15.31691801,.00012367,53.1591,167.9718,93.9895,266.1248,0,U,47408,999,30278,-.1930304E-5,-.425E-5,0
STARLINK-1954,2021-009H,2026-07-14T12:40:52.141728,15.44050185,.0003332,53.0474,132.9122,71.4437,288.6930,0,U,47555,999,30047,.83396E-3,.38456E-3,0
STARLINK-1967,2021-009W,2026-07-14T21:38:01.821408,16.03972007,.00056599,53.0323,88.7020,234.5379,125.5124,0,U,47568,999,30111,.53978861E-3,.355775E-2,.67944094E-4
STARLINK-1994,2021-009AT,2026-07-14T22:00:03.000096,15.92817478,.00036726,53.0352,91.4745,206.4384,272.0278,0,U,47589,999,595,.62795267E-3,.219527E-2,.2931646E-4
STARLINK-1995,2021-009AU,2026-07-14T22:00:03.000096,15.90935327,.00016273,53.0338,109.2622,168.8312,42.5529,0,U,47590,999,575,.58257717E-3,.184076E-2,.23566166E-4
STARLINK-2001,2021-009BA,2026-07-14T22:00:03.000096,15.78936515,.00020547,53.0368,118.4103,173.4878,58.9561,0,U,47596,999,566,-.89533249E-4,-.16827E-3,0
STARLINK-1609,2021-012B,2026-07-14T09:26:51.888768,15.50160984,.0005384,53.1534,186.2344,24.1416,335.9845,0,U,47621,999,29963,.93658959E-3,.53619E-3,0
STARLINK-1704,2021-012F,2026-07-14T10:14:42.776736,15.70223410,.00026285,53.0424,170.0103,350.4264,9.6702,0,U,47625,999,29982,.45577143E-3,.56209E-3,0
STARLINK-1972,2021-012H,2026-07-14T20:40:06.059136,15.72551019,.00024883,53.0431,66.3146,234.8013,125.2772,0,U,47627,999,30129,.46351841E-3,.63154E-3,0
STARLINK-1973,2021-012J,2026-07-14T11:33:34.929792,15.31701779,.00011123,53.1583,195.0486,104.8741,255.2383,0,U,47628,999,29951,.21307299E-4,.296E-5,0
STARLINK-1983,2021-012L,2026-07-14T08:20:44.456928,15.31735255,.0001071,53.1582,180.2482,92.4334,267.6790,0,U,47630,999,29968,-.30952191E-3,-.9968E-4,0
STARLINK-1992,2021-012N,2026-07-14T21:05:16.578240,15.31714502,.0001384,53.1612,100.9087,98.7963,261.3195,0,U,47632,999,30084,.10922089E-3,.3027E-4,0
STARLINK-2015,2021-012U,2026-07-14T21:45:24.853824,15.38483698,.00056401,53.1554,98.7745,76.5807,283.5825,0,U,47638,999,30087,.11309681E-2,.43457E-3,0
STARLINK-2019,2021-012X,2026-07-14T22:00:03.000096,15.93374945,.00022563,53.0327,30.6923,256.0666,352.4882,0,U,47641,999,606,.77379959E-3,.279352E-2,.40967529E-4
STARLINK-2031,2021-012AE,2026-07-14T05:46:22.825344,15.31701911,.00015723,53.1590,180.7118,81.3963,278.7216,0,U,47648,999,29969,.13175758E-4,.44E-6,0
STARLINK-2032,2021-012AF,2026-07-15T03:29:00.911616,16.17663474,.0006292,53.0233,92.6090,226.3403,133.7112,0,U,47649,999,30097,.68433E-3,.1118423E-1,.91477E-3
STARLINK-2033,2021-012AG,2026-07-11T07:14:29.513472,15.44565355,.00041985,53.1483,188.6999,41.4356,318.6969,0,U,47650,999,29930,.30023519E-2,.143973E-2,0
STARLINK-2036,2021-012AJ,2026-07-14T22:00:03.000096,15.83001163,.00013588,53.1588,170.3236,122.3736,320.7183,0,U,47652,999,569,.4037114E-3,.88162E-3,0
STARLINK-2039,2021-012AM,2026-07-14T05:31:10.917408,15.31695577,.00016418,53.1612,196.2763,92.1701,267.9488,0,U,47655,999,29947,.31410454E-4,.609E-5,0
STARLINK-2040,2021-012AN,2026-07-14T22:53:14.464032,15.31690341,.00015316,53.1596,177.3800,111.0103,249.1063,0,U,47656,999,29979,.21039509E-3,.6167E-4,0
STARLINK-2041,2021-012AP,2026-07-14T22:00:03.000096,15.87370930,.00074427,53.1479,158.1974,51.2764,156.2883,0,U,47657,999,600,.44593991E-3,.121096E-2,0
STARLINK-2083,2021-012BJ,2026-07-14T22:00:03.000096,15.94044478,.00049549,53.0356,9.7089,271.9935,90.9351,0,U,47676,999,606,.89746956E-3,.336679E-2,.55185319E-4
STARLINK-2068,2021-017A,2026-07-14T14:45:51.240096,15.31709623,.0001166,53.1607,320.4460,73.0798,287.0332,0,U,47722,999,29752,.83022E-5,-.107E-5,0
STARLINK-2107,2021-017B,2026-07-14T15:36:37.536480,15.31711841,.00012462,53.1595,255.9737,78.2650,281.8491,0,U,47723,999,29839,.469955E-4,.1094E-4,0
STARLINK-2131,2021-017G,2026-07-14T22:13:31.093248,15.71115406,.00023322,53.0707,317.8012,1.6708,358.4317,0,U,47728,999,29756,.48457848E-3,.62128E-3,0
STARLINK-2140,2021-017J,2026-07-14T16:55:32.607264,15.31711789,.00008708,53.1618,345.9860,112.3324,247.7770,0,U,47730,999,29711,-.71527448E-4,-.2585E-4,0
STARLINK-2141,2021-017K,2026-07-14T15:18:55.060128,16.07776130,.00075093,53.1467,300.1075,338.1103,21.9609,0,U,47731,999,29776,.75686372E-3,.63394E-2,.21456333E-3
STARLINK-2143,2021-017M,2026-07-14T16:42:04.390560,15.31710448,.00011916,53.1610,345.7484,95.6486,264.4652,0,U,47733,999,29717,.71292057E-4,.1848E-4,0
STARLINK-2144,2021-017N,2026-07-14T16:44:22.627968,15.31714335,.00019766,53.1618,332.9528,54.5766,305.5420,0,U,47734,999,29732,.13667495E-3,.388E-4,0
STARLINK-2147,2021-017Q,2026-07-14T22:00:03.000096,15.60457458,.00010285,53.0724,322.3482,70.1224,136.8193,0,U,47736,999,595,.12569096E-1,.1170415E-1,0
STARLINK-2150,2021-017T,2026-07-14T15:02:51.136800,15.31690702,.00012971,53.1602,348.5845,54.8929,305.2194,0,U,47739,999,29713,-.95249356E-4,-.3319E-4,0
STARLINK-2156,2021-017W,2026-07-14T15:07:34.238496,15.31709994,.00011942,53.1603,323.5247,57.1787,302.9329,0,U,47742,999,29748,.95412339E-4,.2598E-4,0
STARLINK-2159,2021-017Z,2026-07-14T21:20:58.896384,15.82420548,.00025559,53.1519,309.6550,20.1624,339.9500,0,U,47745,999,29764,.524835E-3,.112053E-2,0
STARLINK-2160,2021-017AA,2026-07-14T21:38:58.749504,15.51364765,.0000873,53.1579,322.8375,157.3954,202.7095,0,U,47746,999,29745,.19517541E-2,.11807E-2,0
STARLINK-2161,2021-017AB,2026-07-14T15:00:48.053952,15.31709800,.00009424,53.1610,323.2817,79.4611,280.6496,0,U,47747,999,29746,.14836608E-3,.4243E-4,0
